j0265    6.3   0.15 K194R 356.33321  100.86742   10.36700    4.14677  0.2514024  0.00405366  38.9557099  1 MPO386696    90  10 2003-2015 0.22 M-v 38h MPCLINUX   000A (450265) 2003 WU172         20151108 2459505.07618 

k9505    6.3   0.15 K194R   9.50256   54.62476  169.18065    3.38301  0.2592514  0.00292407  48.4332947  1 MPO382900    69   7 2003-2015 0.20 M-v 38h MPCW       000A (469505) 2003 FE128         20150525 2455350.65048 

k9610    6.3   0.15 K194R 339.62410  192.09674   76.64526    1.48521  0.0350386  0.00342083  43.6229548  2 MPO382930    35   6 2004-2015 0.18 M-v 38h MPCW       000A (469610) 2004 HF79          20150525 2464556.97217 

o4847    6.3   0.15 K194R 348.65108  209.52063  189.20146    6.76424  0.1450769  0.00316872  45.9070878  1 MPO428222   111  14 1999-2017 0.13 M-v 38h MPCLINUX   000A (504847) 2010 RE188         20170830 2462182.06973 

J96T66K  6.3   0.15 K194R 140.26689  207.20821   44.58502    3.31754  0.0169141  0.00355578  42.5120997  2 E2018-X68    62  12 1996-2017 0.39 M-v 38h MPCLINUX   000A          1996 TK66          20171120 2419152.03978 

